STARLINK-6287           
1 56404U 23061AG  25283.05188258  .00000897  00000+0  81461-4 0  9995
2 56404  43.0050 283.0926 0001292 269.3428  90.7266 15.02533838134243
STARLINK-6285           
1 56405U 23061AH  25283.05743142  .00000604  00000+0  59813-4 0  9997
2 56405  43.0049 283.1367 0001266 268.7020  91.3677 15.02532545134241
STARLINK-6283           
1 56406U 23061AJ  25283.30891561  .00000751  00000+0  70681-4 0  9994
2 56406  43.0078 281.5801 0002137 285.0661  74.9945 15.02535936134286
STARLINK-6282           
1 56407U 23061AK  25283.05410718 -.00001287  00000+0 -80210-4 0  9994
2 56407  43.0036 283.1092 0001222 273.3369  86.7333 15.02536646134247
STARLINK-6289           
1 56408U 23061AL  25283.30114179  .00000684  00000+0  65687-4 0  9994
2 56408  43.0039 281.5127 0001142 274.2836  85.7876 15.02537142134289
STARLINK-6241           
1 56409U 23061AM  25283.04855322 -.00000079  00000+0  92059-5 0  9991
2 56409  43.0037 283.0688 0001147 270.1070  89.9641 15.02534947134249
STARLINK-6281           
1 56410U 23061AN  25283.30003391  .00000825  00000+0  76153-4 0  9997
2 56410  43.0046 281.5132 0001337 283.9021  76.1672 15.02539145134288
STARLINK-6279           
1 56411U 23061AP  25283.04633472  .00000287  00000+0  36343-4 0  9997
2 56411  43.0049 283.0512 0001229 275.3311  84.7391 15.02530981134246
STARLINK-6278           
1 56412U 23061AQ  25283.29448754  .00000047  00000+0  18512-4 0  9994
2 56412  43.0036 281.4670 0000755 265.3961  94.6795 15.02535617134286
STARLINK-6258           
1 56413U 23061AR  25282.97097750 -.00000483  00000+0 -20689-4 0  9999
2 56413  43.0039 283.3423 0001202 262.2595  97.8111 15.02530270134236
STARLINK-5136           
1 56414U 23061AS  25283.29004920  .00000497  00000+0  51866-4 0  9997
2 56414  43.0041 281.4363 0001262 268.9601  91.1097 15.02533551134289
STARLINK-6260           
1 56416U 23061AU  25283.00786473  .00000754  00000+0  70885-4 0  9996
2 56416  43.0036 270.6152 0001028 287.3531  72.7199 15.02543070134384
STARLINK-6261           
1 56417U 23061AV  25283.29115309  .00000657  00000+0  63738-4 0  9993
2 56417  43.0042 281.4458 0001349 269.6389  90.4298 15.02534239134284
STARLINK-5356           
1 56418U 23061AW  25283.26045307 -.00000883  00000+0 -50292-4 0  9995
2 56418  43.0042 269.0673 0001090 278.3286  81.7433 15.02546014134426
STARLINK-5350           
1 56419U 23061AX  25283.28782620 -.00000061  00000+0  10531-4 0  9993
2 56419  43.0048 281.4211 0001256 268.1164  91.9534 15.02531979134288
STARLINK-6272           
1 56420U 23061AY  25283.05768749  .00000717  00000+0  68147-4 0  9999
2 56420  43.0036 270.1248 0001335 265.5592  94.5098 15.02537946134392
