[{"OBJECT_NAME":"STARLINK-6287","OBJECT_ID":"2023-061AG","EPOCH":"2025-10-10T01:14:42.654912","MEAN_MOTION":15.02533838,"ECCENTRICITY":0.00012929,"INCLINATION":43.005,"RA_OF_ASC_NODE":283.0926,"ARG_OF_PERICENTER":269.3428,"MEAN_ANOMALY":90.7266,"EPHEMERIS_TYPE":0,"CLASSIFICATION_TYPE":"U","NORAD_CAT_ID":56404,"ELEMENT_SET_NO":999,"REV_AT_EPOCH":13424,"BSTAR":8.146145e-5,"MEAN_MOTION_DOT":8.97e-6,"MEAN_MOTION_DDOT":0},{"OBJECT_NAME":"STARLINK-6285","OBJECT_ID":"2023-061AH","EPOCH":"2025-10-10T01:22:42.074688","MEAN_MOTION":15.02532545,"ECCENTRICITY":0.00012663,"INCLINATION":43.0049,"RA_OF_ASC_NODE":283.1367,"ARG_OF_PERICENTER":268.702,"MEAN_ANOMALY":91.3677,"EPHEMERIS_TYPE":0,"CLASSIFICATION_TYPE":"U","NORAD_CAT_ID":56405,"ELEMENT_SET_NO":999,"REV_AT_EPOCH":13424,"BSTAR":5.981257e-5,"MEAN_MOTION_DOT":6.04e-6,"MEAN_MOTION_DDOT":0},{"OBJECT_NAME":"STARLINK-6283","OBJECT_ID":"2023-061AJ","EPOCH":"2025-10-10T07:24:50.308704","MEAN_MOTION":15.02535936,"ECCENTRICITY":0.00021372,"INCLINATION":43.0078,"RA_OF_ASC_NODE":281.5801,"ARG_OF_PERICENTER":285.0661,"MEAN_ANOMALY":74.9945,"EPHEMERIS_TYPE":0,"CLASSIFICATION_TYPE":"U","NORAD_CAT_ID":56406,"ELEMENT_SET_NO":999,"REV_AT_EPOCH":13428,"BSTAR":7.0680604e-5,"MEAN_MOTION_DOT":7.51e-6,"MEAN_MOTION_DDOT":0},{"OBJECT_NAME":"STARLINK-6282","OBJECT_ID":"2023-061AK","EPOCH":"2025-10-10T01:17:54.860352","MEAN_MOTION":15.02536646,"ECCENTRICITY":0.00012222,"INCLINATION":43.0036,"RA_OF_ASC_NODE":283.1092,"ARG_OF_PERICENTER":273.3369,"MEAN_ANOMALY":86.7333,"EPHEMERIS_TYPE":0,"CLASSIFICATION_TYPE":"U","NORAD_CAT_ID":56407,"ELEMENT_SET_NO":999,"REV_AT_EPOCH":13424,"BSTAR":-8.0210493e-5,"MEAN_MOTION_DOT":-1.287e-5,"MEAN_MOTION_DDOT":0},{"OBJECT_NAME":"STARLINK-6289","OBJECT_ID":"2023-061AL","EPOCH":"2025-10-10T07:13:38.650656","MEAN_MOTION":15.02537142,"ECCENTRICITY":0.00011424,"INCLINATION":43.0039,"RA_OF_ASC_NODE":281.5127,"ARG_OF_PERICENTER":274.2836,"MEAN_ANOMALY":85.7876,"EPHEMERIS_TYPE":0,"CLASSIFICATION_TYPE":"U","NORAD_CAT_ID":56408,"ELEMENT_SET_NO":999,"REV_AT_EPOCH":13428,"BSTAR":6.5686978e-5,"MEAN_MOTION_DOT":6.84e-6,"MEAN_MOTION_DDOT":0},{"OBJECT_NAME":"STARLINK-6241","OBJECT_ID":"2023-061AM","EPOCH":"2025-10-10T01:09:54.998208","MEAN_MOTION":15.02534947,"ECCENTRICITY":0.00011474,"INCLINATION":43.0037,"RA_OF_ASC_NODE":283.0688,"ARG_OF_PERICENTER":270.107,"MEAN_ANOMALY":89.9641,"EPHEMERIS_TYPE":0,"CLASSIFICATION_TYPE":"U","NORAD_CAT_ID":56409,"ELEMENT_SET_NO":999,"REV_AT_EPOCH":13424,"BSTAR":9.205928e-6,"MEAN_MOTION_DOT":-7.9e-7,"MEAN_MOTION_DDOT":0},{"OBJECT_NAME":"STARLINK-6281","OBJECT_ID":"2023-061AN","EPOCH":"2025-10-10T07:12:02.929824","MEAN_MOTION":15.02539145,"ECCENTRICITY":0.00013372,"INCLINATION":43.0046,"RA_OF_ASC_NODE":281.5132,"ARG_OF_PERICENTER":283.9021,"MEAN_ANOMALY":76.1672,"EPHEMERIS_TYPE":0,"CLASSIFICATION_TYPE":"U","NORAD_CAT_ID":56410,"ELEMENT_SET_NO":999,"REV_AT_EPOCH":13428,"BSTAR":7.6153049e-5,"MEAN_MOTION_DOT":8.25e-6,"MEAN_MOTION_DDOT":0},{"OBJECT_NAME":"STARLINK-6279","OBJECT_ID":"2023-061AP","EPOCH":"2025-10-10T01:06:43.319808","MEAN_MOTION":15.02530981,"ECCENTRICITY":0.00012295,"INCLINATION":43.0049,"RA_OF_ASC_NODE":283.0512,"ARG_OF_PERICENTER":275.3311,"MEAN_ANOMALY":84.7391,"EPHEMERIS_TYPE":0,"CLASSIFICATION_TYPE":"U","NORAD_CAT_ID":56411,"ELEMENT_SET_NO":999,"REV_AT_EPOCH":13424,"BSTAR":3.634341e-5,"MEAN_MOTION_DOT":2.87e-6,"MEAN_MOTION_DDOT":0},{"OBJECT_NAME":"STARLINK-6278","OBJECT_ID":"2023-061AQ","EPOCH":"2025-10-10T07:04:03.723456","MEAN_MOTION":15.02535617,"ECCENTRICITY":7.553e-5,"INCLINATION":43.0036,"RA_OF_ASC_NODE":281.467,"ARG_OF_PERICENTER":265.3961,"MEAN_ANOMALY":94.6795,"EPHEMERIS_TYPE":0,"CLASSIFICATION_TYPE":"U","NORAD_CAT_ID":56412,"ELEMENT_SET_NO":999,"REV_AT_EPOCH":13428,"BSTAR":1.8512021e-5,"MEAN_MOTION_DOT":4.7e-7,"MEAN_MOTION_DDOT":0},{"OBJECT_NAME":"STARLINK-6258","OBJECT_ID":"2023-061AR","EPOCH":"2025-10-09T23:18:12.456000","MEAN_MOTION":15.0253027,"ECCENTRICITY":0.00012023,"INCLINATION":43.0039,"RA_OF_ASC_NODE":283.3423,"ARG_OF_PERICENTER":262.2595,"MEAN_ANOMALY":97.8111,"EPHEMERIS_TYPE":0,"CLASSIFICATION_TYPE":"U","NORAD_CAT_ID":56413,"ELEMENT_SET_NO":999,"REV_AT_EPOCH":13423,"BSTAR":-2.0689364e-5,"MEAN_MOTION_DOT":-4.83e-6,"MEAN_MOTION_DDOT":0},{"OBJECT_NAME":"STARLINK-5136","OBJECT_ID":"2023-061AS","EPOCH":"2025-10-10T06:57:40.250880","MEAN_MOTION":15.02533551,"ECCENTRICITY":0.00012629,"INCLINATION":43.0041,"RA_OF_ASC_NODE":281.4363,"ARG_OF_PERICENTER":268.9601,"MEAN_ANOMALY":91.1097,"EPHEMERIS_TYPE":0,"CLASSIFICATION_TYPE":"U","NORAD_CAT_ID":56414,"ELEMENT_SET_NO":999,"REV_AT_EPOCH":13428,"BSTAR":5.1865561e-5,"MEAN_MOTION_DOT":4.97e-6,"MEAN_MOTION_DDOT":0},{"OBJECT_NAME":"STARLINK-6260","OBJECT_ID":"2023-061AU","EPOCH":"2025-10-10T00:11:19.512672","MEAN_MOTION":15.0254307,"ECCENTRICITY":0.00010281,"INCLINATION":43.0036,"RA_OF_ASC_NODE":270.6152,"ARG_OF_PERICENTER":287.3531,"MEAN_ANOMALY":72.7199,"EPHEMERIS_TYPE":0,"CLASSIFICATION_TYPE":"U","NORAD_CAT_ID":56416,"ELEMENT_SET_NO":999,"REV_AT_EPOCH":13438,"BSTAR":7.0884648e-5,"MEAN_MOTION_DOT":7.54e-6,"MEAN_MOTION_DDOT":0},{"OBJECT_NAME":"STARLINK-6261","OBJECT_ID":"2023-061AV","EPOCH":"2025-10-10T06:59:15.626976","MEAN_MOTION":15.02534239,"ECCENTRICITY":0.00013492,"INCLINATION":43.0042,"RA_OF_ASC_NODE":281.4458,"ARG_OF_PERICENTER":269.6389,"MEAN_ANOMALY":90.4298,"EPHEMERIS_TYPE":0,"CLASSIFICATION_TYPE":"U","NORAD_CAT_ID":56417,"ELEMENT_SET_NO":999,"REV_AT_EPOCH":13428,"BSTAR":6.3738122e-5,"MEAN_MOTION_DOT":6.57e-6,"MEAN_MOTION_DDOT":0},{"OBJECT_NAME":"STARLINK-5356","OBJECT_ID":"2023-061AW","EPOCH":"2025-10-10T06:15:03.145248","MEAN_MOTION":15.02546014,"ECCENTRICITY":0.00010901,"INCLINATION":43.0042,"RA_OF_ASC_NODE":269.0673,"ARG_OF_PERICENTER":278.3286,"MEAN_ANOMALY":81.7433,"EPHEMERIS_TYPE":0,"CLASSIFICATION_TYPE":"U","NORAD_CAT_ID":56418,"ELEMENT_SET_NO":999,"REV_AT_EPOCH":13442,"BSTAR":-5.0292494e-5,"MEAN_MOTION_DOT":-8.83e-6,"MEAN_MOTION_DDOT":0},{"OBJECT_NAME":"STARLINK-5350","OBJECT_ID":"2023-061AX","EPOCH":"2025-10-10T06:54:28.183680","MEAN_MOTION":15.02531979,"ECCENTRICITY":0.00012564,"INCLINATION":43.0048,"RA_OF_ASC_NODE":281.4211,"ARG_OF_PERICENTER":268.1164,"MEAN_ANOMALY":91.9534,"EPHEMERIS_TYPE":0,"CLASSIFICATION_TYPE":"U","NORAD_CAT_ID":56419,"ELEMENT_SET_NO":999,"REV_AT_EPOCH":13428,"BSTAR":1.0531137e-5,"MEAN_MOTION_DOT":-6.1e-7,"MEAN_MOTION_DDOT":0},{"OBJECT_NAME":"STARLINK-6272","OBJECT_ID":"2023-061AY","EPOCH":"2025-10-10T01:23:04.199136","MEAN_MOTION":15.02537946,"ECCENTRICITY":0.0001335,"INCLINATION":43.0036,"RA_OF_ASC_NODE":270.1248,"ARG_OF_PERICENTER":265.5592,"MEAN_ANOMALY":94.5098,"EPHEMERIS_TYPE":0,"CLASSIFICATION_TYPE":"U","NORAD_CAT_ID":56420,"ELEMENT_SET_NO":999,"REV_AT_EPOCH":13439,"BSTAR":6.8146564e-5,"MEAN_MOTION_DOT":7.17e-6,"MEAN_MOTION_DDOT":0}]
